COSMOS 2433 (720)       
1 32275C 07052A   23015.99979167  .00000000  00000-0  00000-0 0   150
2 32275  66.0666 357.6165 0004780 269.2395 330.1186  2.13104006    19
COSMOS 2432 (719)       
1 32276C 07052B   23015.99979167  .00000000  00000-0  00000-0 0   151
2 32276  66.0805 357.7211 0012039 320.3558 226.7030  2.13103265    18
COSMOS 2434 (721)       
1 32393C 07065A   23015.99979167  .00000000  00000-0  00000-0 0   155
2 32393  64.3549 234.1784 0005028  72.8750  56.7837  2.13103016    10
COSMOS 2436 (723)       
1 32395C 07065C   23015.99979167  .00000000  00000-0  00000-0 0   157
2 32395  64.3636 234.2378 0016978   8.0840 257.2580  2.13102811    11
COSMOS 2456 (730)       
1 36111C 09070A   23015.99979167 -.00000000  00000-0  00000-0 0   156
2 36111  64.4119 113.7545 0003301 298.5218 353.7055  2.13099046    10
COSMOS 2457 (733)       
1 36112C 09070B   23015.99979167 -.00000000  00000-0  00000-0 0   157
2 36112  64.3955 113.6253 0005619 169.4488 251.7562  2.13101188    13
COSMOS 2460 (732)       
1 36402C 10007C   23015.99979167  .00000000  00000-0  00000-0 0   150
2 36402  65.9342 356.3707 0002503 299.1542 107.8131  2.13106164    15
COSMOS 2476 (744)       
1 37867C 11064A   23015.99979167 -.00000000  00000-0  00000-0 0   151
2 37867  64.6968 115.1932 0022566 234.4408 325.1148  2.13101615    15
COSMOS 2477 (745)       
1 37868C 11064B   23015.99979167 -.00000000  00000-0  00000-0 0   152
2 37868  64.7043 115.2602 0019780 235.0787 142.4767  2.13101529    18
COSMOS 2475 (743)       
1 37869C 11064C   23015.99979167 -.00000000  00000-0  00000-0 0   153
2 37869  64.7115 115.2703 0023864 252.4670  83.3152  2.13101729    16
COSMOS 2485 (747)       
1 39155C 13019A   23015.99979167 -.00000000  00000-0  00000-0 0   155
2 39155  64.8590 115.6673 0022985 230.5812  13.3595  2.13101663    13
COSMOS 2492 (754)       
1 39620C 14012A   23015.99979167  .00000000  00000-0  00000-0 0   155
2 39620  65.8194 356.0220 0015106 318.1450 320.1157  2.13103091    18
COSMOS 2500 (755)       
1 40001C 14032A   23015.99979167  .00000000  00000-0  00000-0 0   152
2 40001  65.7583 355.8672 0006694 225.3931 270.9259  2.13102315    10
COSMOS 2501 (702K)      
1 40315C 14075A   23015.99979167  .00000000  00000-0  00000-0 0   157
2 40315  63.6600 233.7358 0016991 204.7559 100.5865  2.13101234    18
COSMOS 2514 (751)       
1 41330C 16008A   23015.99979167  .00000000  00000-0  00000-0 0   153
2 41330  65.5572 355.5063 0010709 225.8303  94.7008  2.13102588    19
COSMOS 2522 (752)       
1 42939C 17055A   23015.99979167  .00000000  00000-0  00000-0 0   152
2 42939  64.1201 234.5290 0005025 240.1268 200.8082  2.13101907    18
COSMOS 2527 (756)       
1 43508C 18053A   23015.99979167 -.00000000  00000-0  00000-0 0   155
2 43508  65.0213 115.7117 0008823 225.9828 246.9339  2.13102385    11
COSMOS 2529 (757)       
1 43687C 18086A   23015.99979167  .00000000  00000-0  00000-0 0   158
2 43687  64.3352 234.9024 0007079 273.4364 122.9791  2.13101981    17
COSMOS 2534 (758)       
1 44299C 19030A   23015.99979167  .00000000  00000-0  00000-0 0   158
2 44299  64.4074 234.8072 0010201 296.3754 234.4094  2.13101887    19
COSMOS 2544 (759)       
1 44850C 19088A   23015.99979167 -.00000000  00000-0  00000-0 0   155
2 44850  65.0069 115.5594 0012934 253.8382 262.3653  2.13102100    17
COSMOS 2545 (760)       
1 45358C 20018A   23015.99979167  .00000000  00000-0  00000-0 0   153
2 45358  64.8965 355.9403 0010934 257.3891 108.0416  2.13102484    12
COSMOS 2547 (705K)      
1 46805C 20075A   23015.99979167  .00000000  00000-0  00000-0 0   154
2 46805  64.6332 234.2945 0005190 242.6689 336.5273  2.13103037    10
COSMOS 2557 (706K)      
1 52984C 20075A   23015.99979167  .00000000  00000-0  00000-0 0   159
2 52984  64.8044 358.1250 0013898 283.9270 172.2645  2.13101755    13
COSMOS 2559 (707K)      
1 54031C 22130A   23015.99979167  .00000000  00000-0  00000-0 0   158
2 54031  64.7751 358.2607 0006906 238.0856 263.3520  2.13100984    19
COSMOS 2564 (761)       
1 54377C 22161A   23015.99979167  .00000000  00000-0  00000-0 0   155
2 54377  64.7735 234.3058 0006608 212.1070 139.5794  2.13102117    15
